[{"OBJECT_NAME":"STARLINK-34903","OBJECT_ID":"2025-190X","EPOCH":"2026-02-28T01:31:11.646336","MEAN_MOTION":15.30422222,"ECCENTRICITY":0.00068603,"INCLINATION":53.1592,"RA_OF_ASC_NODE":212.7208,"ARG_OF_PERICENTER":130.5735,"MEAN_ANOMALY":229.5864,"EPHEMERIS_TYPE":0,"CLASSIFICATION_TYPE":"U","NORAD_CAT_ID":65372,"ELEMENT_SET_NO":999,"REV_AT_EPOCH":2828,"BSTAR":0.0018163911,"MEAN_MOTION_DOT":0.00054234,"MEAN_MOTION_DDOT":0},{"OBJECT_NAME":"STARLINK-34891","OBJECT_ID":"2025-190Y","EPOCH":"2026-02-27T17:07:46.479360","MEAN_MOTION":15.30191683,"ECCENTRICITY":0.0001738,"INCLINATION":53.1519,"RA_OF_ASC_NODE":214.8012,"ARG_OF_PERICENTER":90.3558,"MEAN_ANOMALY":269.7642,"EPHEMERIS_TYPE":0,"CLASSIFICATION_TYPE":"U","NORAD_CAT_ID":65373,"ELEMENT_SET_NO":999,"REV_AT_EPOCH":2770,"BSTAR":0.00031515281,"MEAN_MOTION_DOT":8.984e-5,"MEAN_MOTION_DDOT":0},{"OBJECT_NAME":"STARLINK-34900","OBJECT_ID":"2025-190Z","EPOCH":"2026-02-28T03:09:55.582848","MEAN_MOTION":15.30194282,"ECCENTRICITY":0.00013005,"INCLINATION":53.1562,"RA_OF_ASC_NODE":212.4394,"ARG_OF_PERICENTER":88.8211,"MEAN_ANOMALY":271.2939,"EPHEMERIS_TYPE":0,"CLASSIFICATION_TYPE":"U","NORAD_CAT_ID":65374,"ELEMENT_SET_NO":999,"REV_AT_EPOCH":2777,"BSTAR":0.0009467846,"MEAN_MOTION_DOT":0.00027782,"MEAN_MOTION_DDOT":0},{"OBJECT_NAME":"STARLINK-34305","OBJECT_ID":"2025-190AA","EPOCH":"2026-02-28T03:06:53.707392","MEAN_MOTION":15.30192674,"ECCENTRICITY":0.00026387,"INCLINATION":53.1605,"RA_OF_ASC_NODE":212.4232,"ARG_OF_PERICENTER":84.6346,"MEAN_ANOMALY":275.4956,"EPHEMERIS_TYPE":0,"CLASSIFICATION_TYPE":"U","NORAD_CAT_ID":65375,"ELEMENT_SET_NO":999,"REV_AT_EPOCH":2829,"BSTAR":0.0011265456,"MEAN_MOTION_DOT":0.00033149,"MEAN_MOTION_DDOT":0},{"OBJECT_NAME":"STARLINK-34249","OBJECT_ID":"2025-190AB","EPOCH":"2026-02-27T20:02:13.382304","MEAN_MOTION":15.30147583,"ECCENTRICITY":7.811e-5,"INCLINATION":53.1565,"RA_OF_ASC_NODE":214.1348,"ARG_OF_PERICENTER":98.9415,"MEAN_ANOMALY":261.1674,"EPHEMERIS_TYPE":0,"CLASSIFICATION_TYPE":"U","NORAD_CAT_ID":65376,"ELEMENT_SET_NO":999,"REV_AT_EPOCH":2866,"BSTAR":0.0006165564,"MEAN_MOTION_DOT":0.00017916,"MEAN_MOTION_DDOT":0},{"OBJECT_NAME":"STARLINK-34879","OBJECT_ID":"2025-190AC","EPOCH":"2026-02-28T02:54:44.157024","MEAN_MOTION":15.30209116,"ECCENTRICITY":0.00010104,"INCLINATION":53.1537,"RA_OF_ASC_NODE":212.3712,"ARG_OF_PERICENTER":89.5789,"MEAN_ANOMALY":270.5327,"EPHEMERIS_TYPE":0,"CLASSIFICATION_TYPE":"U","NORAD_CAT_ID":65377,"ELEMENT_SET_NO":999,"REV_AT_EPOCH":2829,"BSTAR":0.00085488929,"MEAN_MOTION_DOT":0.00025053,"MEAN_MOTION_DDOT":0},{"OBJECT_NAME":"STARLINK-34912","OBJECT_ID":"2025-190AD","EPOCH":"2026-02-28T02:45:37.808352","MEAN_MOTION":15.30219026,"ECCENTRICITY":0.00011509,"INCLINATION":53.1559,"RA_OF_ASC_NODE":212.3311,"ARG_OF_PERICENTER":64.3951,"MEAN_ANOMALY":295.7169,"EPHEMERIS_TYPE":0,"CLASSIFICATION_TYPE":"U","NORAD_CAT_ID":65378,"ELEMENT_SET_NO":999,"REV_AT_EPOCH":2829,"BSTAR":0.00088382582,"MEAN_MOTION_DOT":0.00025924,"MEAN_MOTION_DDOT":0},{"OBJECT_NAME":"STARLINK-34985","OBJECT_ID":"2025-191A","EPOCH":"2026-02-28T05:39:46.673568","MEAN_MOTION":15.05649398,"ECCENTRICITY":0.00025242,"INCLINATION":97.6034,"RA_OF_ASC_NODE":292.1566,"ARG_OF_PERICENTER":88.2931,"MEAN_ANOMALY":271.8584,"EPHEMERIS_TYPE":0,"CLASSIFICATION_TYPE":"U","NORAD_CAT_ID":65379,"ELEMENT_SET_NO":999,"REV_AT_EPOCH":2884,"BSTAR":0.00012559458,"MEAN_MOTION_DOT":1.752e-5,"MEAN_MOTION_DDOT":0},{"OBJECT_NAME":"STARLINK-35051","OBJECT_ID":"2025-191B","EPOCH":"2026-02-28T04:47:57.408000","MEAN_MOTION":15.0566262,"ECCENTRICITY":0.00020777,"INCLINATION":97.6026,"RA_OF_ASC_NODE":292.2061,"ARG_OF_PERICENTER":63.0882,"MEAN_ANOMALY":297.0557,"EPHEMERIS_TYPE":0,"CLASSIFICATION_TYPE":"U","NORAD_CAT_ID":65380,"ELEMENT_SET_NO":999,"REV_AT_EPOCH":2885,"BSTAR":0.00043670634,"MEAN_MOTION_DOT":6.248e-5,"MEAN_MOTION_DDOT":0},{"OBJECT_NAME":"STARLINK-35028","OBJECT_ID":"2025-191C","EPOCH":"2026-02-28T04:24:01.692288","MEAN_MOTION":15.05651196,"ECCENTRICITY":0.00019817,"INCLINATION":97.6045,"RA_OF_ASC_NODE":292.2288,"ARG_OF_PERICENTER":77.8482,"MEAN_ANOMALY":282.2967,"EPHEMERIS_TYPE":0,"CLASSIFICATION_TYPE":"U","NORAD_CAT_ID":65381,"ELEMENT_SET_NO":999,"REV_AT_EPOCH":2884,"BSTAR":0.00026405125,"MEAN_MOTION_DOT":3.751e-5,"MEAN_MOTION_DDOT":0},{"OBJECT_NAME":"STARLINK-35032","OBJECT_ID":"2025-191D","EPOCH":"2026-02-28T05:15:51.404544","MEAN_MOTION":15.0565052,"ECCENTRICITY":0.00018604,"INCLINATION":97.6017,"RA_OF_ASC_NODE":292.179,"ARG_OF_PERICENTER":91.2692,"MEAN_ANOMALY":268.8748,"EPHEMERIS_TYPE":0,"CLASSIFICATION_TYPE":"U","NORAD_CAT_ID":65382,"ELEMENT_SET_NO":999,"REV_AT_EPOCH":2884,"BSTAR":0.00016722333,"MEAN_MOTION_DOT":2.353e-5,"MEAN_MOTION_DDOT":0},{"OBJECT_NAME":"STARLINK-35054","OBJECT_ID":"2025-191E","EPOCH":"2026-02-28T04:16:02.263872","MEAN_MOTION":15.05651659,"ECCENTRICITY":0.00020767,"INCLINATION":97.6045,"RA_OF_ASC_NODE":292.0819,"ARG_OF_PERICENTER":78.7852,"MEAN_ANOMALY":281.3608,"EPHEMERIS_TYPE":0,"CLASSIFICATION_TYPE":"U","NORAD_CAT_ID":65383,"ELEMENT_SET_NO":999,"REV_AT_EPOCH":2883,"BSTAR":0.0003015705,"MEAN_MOTION_DOT":4.293e-5,"MEAN_MOTION_DDOT":0},{"OBJECT_NAME":"STARLINK-35012","OBJECT_ID":"2025-191F","EPOCH":"2026-02-28T05:27:48.999744","MEAN_MOTION":15.05648637,"ECCENTRICITY":0.00022077,"INCLINATION":97.6025,"RA_OF_ASC_NODE":292.1673,"ARG_OF_PERICENTER":92.4483,"MEAN_ANOMALY":267.6996,"EPHEMERIS_TYPE":0,"CLASSIFICATION_TYPE":"U","NORAD_CAT_ID":65384,"ELEMENT_SET_NO":999,"REV_AT_EPOCH":2884,"BSTAR":4.676528e-5,"MEAN_MOTION_DOT":6.14e-6,"MEAN_MOTION_DDOT":0},{"OBJECT_NAME":"STARLINK-35073","OBJECT_ID":"2025-191G","EPOCH":"2026-02-28T05:03:53.874144","MEAN_MOTION":15.0564404,"ECCENTRICITY":0.00020823,"INCLINATION":97.6016,"RA_OF_ASC_NODE":292.1909,"ARG_OF_PERICENTER":96.0579,"MEAN_ANOMALY":264.0885,"EPHEMERIS_TYPE":0,"CLASSIFICATION_TYPE":"U","NORAD_CAT_ID":65385,"ELEMENT_SET_NO":999,"REV_AT_EPOCH":2884,"BSTAR":0.00036455351,"MEAN_MOTION_DOT":5.203e-5,"MEAN_MOTION_DDOT":0},{"OBJECT_NAME":"STARLINK-35066","OBJECT_ID":"2025-191H","EPOCH":"2026-02-28T04:35:59.322048","MEAN_MOTION":15.05652602,"ECCENTRICITY":0.0001911,"INCLINATION":97.6038,"RA_OF_ASC_NODE":292.2175,"ARG_OF_PERICENTER":91.8271,"MEAN_ANOMALY":268.3174,"EPHEMERIS_TYPE":0,"CLASSIFICATION_TYPE":"U","NORAD_CAT_ID":65386,"ELEMENT_SET_NO":999,"REV_AT_EPOCH":2884,"BSTAR":0.00031950034,"MEAN_MOTION_DOT":4.553e-5,"MEAN_MOTION_DDOT":0},{"OBJECT_NAME":"STARLINK-34703","OBJECT_ID":"2025-191J","EPOCH":"2026-02-28T04:55:55.091136","MEAN_MOTION":15.05652811,"ECCENTRICITY":0.00015332,"INCLINATION":97.6013,"RA_OF_ASC_NODE":292.2002,"ARG_OF_PERICENTER":99.3106,"MEAN_ANOMALY":260.8294,"EPHEMERIS_TYPE":0,"CLASSIFICATION_TYPE":"U","NORAD_CAT_ID":65387,"ELEMENT_SET_NO":999,"REV_AT_EPOCH":2884,"BSTAR":0.00020102005,"MEAN_MOTION_DOT":2.841e-5,"MEAN_MOTION_DDOT":0},{"OBJECT_NAME":"STARLINK-34957","OBJECT_ID":"2025-191K","EPOCH":"2026-02-28T04:28:00.658272","MEAN_MOTION":15.05649908,"ECCENTRICITY":0.00019937,"INCLINATION":97.6046,"RA_OF_ASC_NODE":292.2253,"ARG_OF_PERICENTER":54.1158,"MEAN_ANOMALY":306.0254,"EPHEMERIS_TYPE":0,"CLASSIFICATION_TYPE":"U","NORAD_CAT_ID":65388,"ELEMENT_SET_NO":999,"REV_AT_EPOCH":2884,"BSTAR":0.00012537768,"MEAN_MOTION_DOT":1.749e-5,"MEAN_MOTION_DDOT":0},{"OBJECT_NAME":"STARLINK-34993","OBJECT_ID":"2025-191L","EPOCH":"2026-02-28T05:31:48.242208","MEAN_MOTION":15.05649098,"ECCENTRICITY":0.00029062,"INCLINATION":97.6021,"RA_OF_ASC_NODE":292.1642,"ARG_OF_PERICENTER":87.3926,"MEAN_ANOMALY":272.7634,"EPHEMERIS_TYPE":0,"CLASSIFICATION_TYPE":"U","NORAD_CAT_ID":65389,"ELEMENT_SET_NO":999,"REV_AT_EPOCH":2884,"BSTAR":7.9584821e-5,"MEAN_MOTION_DOT":1.088e-5,"MEAN_MOTION_DDOT":0},{"OBJECT_NAME":"STARLINK-35083","OBJECT_ID":"2025-191M","EPOCH":"2026-02-28T05:47:44.774880","MEAN_MOTION":15.05654999,"ECCENTRICITY":0.0002645,"INCLINATION":97.6045,"RA_OF_ASC_NODE":292.1514,"ARG_OF_PERICENTER":85.3345,"MEAN_ANOMALY":274.8184,"EPHEMERIS_TYPE":0,"CLASSIFICATION_TYPE":"U","NORAD_CAT_ID":65390,"ELEMENT_SET_NO":999,"REV_AT_EPOCH":2884,"BSTAR":0.00019548581,"MEAN_MOTION_DOT":2.761e-5,"MEAN_MOTION_DDOT":0},{"OBJECT_NAME":"STARLINK-34786","OBJECT_ID":"2025-191N","EPOCH":"2026-02-28T04:39:58.459968","MEAN_MOTION":15.05652612,"ECCENTRICITY":0.00020979,"INCLINATION":97.6033,"RA_OF_ASC_NODE":292.2142,"ARG_OF_PERICENTER":76.5477,"MEAN_ANOMALY":283.5983,"EPHEMERIS_TYPE":0,"CLASSIFICATION_TYPE":"U","NORAD_CAT_ID":65391,"ELEMENT_SET_NO":999,"REV_AT_EPOCH":2884,"BSTAR":0.0004084057,"MEAN_MOTION_DOT":5.837e-5,"MEAN_MOTION_DDOT":0},{"OBJECT_NAME":"STARLINK-35082","OBJECT_ID":"2025-191P","EPOCH":"2026-02-28T04:20:02.277024","MEAN_MOTION":15.05655936,"ECCENTRICITY":0.00025192,"INCLINATION":97.6045,"RA_OF_ASC_NODE":292.2329,"ARG_OF_PERICENTER":89.7539,"MEAN_ANOMALY":270.3976,"EPHEMERIS_TYPE":0,"CLASSIFICATION_TYPE":"U","NORAD_CAT_ID":65392,"ELEMENT_SET_NO":999,"REV_AT_EPOCH":2884,"BSTAR":-0.00073397826,"MEAN_MOTION_DOT":-0.00010638,"MEAN_MOTION_DDOT":0},{"OBJECT_NAME":"STARLINK-35097","OBJECT_ID":"2025-191Q","EPOCH":"2026-02-28T05:11:53.962656","MEAN_MOTION":15.05652642,"ECCENTRICITY":0.00020668,"INCLINATION":97.6022,"RA_OF_ASC_NODE":292.1826,"ARG_OF_PERICENTER":86.4447,"MEAN_ANOMALY":273.7016,"EPHEMERIS_TYPE":0,"CLASSIFICATION_TYPE":"U","NORAD_CAT_ID":65393,"ELEMENT_SET_NO":999,"REV_AT_EPOCH":2739,"BSTAR":0.0010580702,"MEAN_MOTION_DOT":0.0001524,"MEAN_MOTION_DDOT":0},{"OBJECT_NAME":"STARLINK-35058","OBJECT_ID":"2025-191R","EPOCH":"2026-02-28T05:19:51.127392","MEAN_MOTION":15.05664032,"ECCENTRICITY":0.00026113,"INCLINATION":97.6019,"RA_OF_ASC_NODE":292.1756,"ARG_OF_PERICENTER":73.8394,"MEAN_ANOMALY":286.312,"EPHEMERIS_TYPE":0,"CLASSIFICATION_TYPE":"U","NORAD_CAT_ID":65394,"ELEMENT_SET_NO":999,"REV_AT_EPOCH":2884,"BSTAR":8.1086248e-5,"MEAN_MOTION_DOT":1.11e-5,"MEAN_MOTION_DDOT":0}]
